OBJECT_NAME,OBJECT_ID,EPOCH,MEAN_MOTION,ECCENTRICITY,INCLINATION,RA_OF_ASC_NODE,ARG_OF_PERICENTER,MEAN_ANOMALY,EPHEMERIS_TYPE,CLASSIFICATION_TYPE,NORAD_CAT_ID,ELEMENT_SET_NO,REV_AT_EPOCH,BSTAR,MEAN_MOTION_DOT,MEAN_MOTION_DDOT
STARLINK-37647,2026-114AB,2026-06-05T20:00:04.000032,15.80887926,.0000854,53.1583,258.9543,81.6604,103.1073,0,U,69207,999,298,-.18262E-3,-.36613E-3,0
STARLINK-37562,2026-114AC,2026-06-05T20:00:04.000032,15.80858043,.0001477,53.1584,258.9274,48.7059,148.8534,0,U,69208,999,298,.19089E-3,.37113E-3,0
STARLINK-37682,2026-114AD,2026-06-05T20:00:04.000032,15.80883655,.0000686,53.1582,258.9184,99.3048,102.5414,0,U,69209,999,298,-.89952E-4,-.18422E-3,0
STARLINK-37402,2026-114AE,2026-06-05T20:00:04.000032,15.80845693,.0001383,53.1582,258.9096,76.7347,129.3790,0,U,69210,999,298,.25298E-3,.49455E-3,0
STARLINK-37613,2026-115A,2026-06-05T20:00:04.000032,15.80936642,.0000156,97.2842,173.6626,41.7444,282.4827,0,U,69211,999,287,-.13403E-2,-.250987E-2,0
STARLINK-37713,2026-115B,2026-06-05T20:00:04.000032,15.80866819,.0001372,97.2835,173.6634,70.7030,255.2009,0,U,69212,999,287,-.39127E-3,-.74625E-3,0
STARLINK-37716,2026-115C,2026-06-05T20:00:04.000032,15.80855703,.0001322,97.2837,173.6617,82.8591,238.7733,0,U,69213,999,287,-.28811E-3,-.55081E-3,0
STARLINK-37620,2026-115D,2026-06-05T20:00:04.000032,15.80896058,.0001129,97.2838,173.6650,104.7876,225.3758,0,U,69214,999,287,-.15859E-1,-.259847E-1,0
STARLINK-37700,2026-115E,2026-06-05T20:00:04.000032,15.70553896,.0001447,97.2853,173.6512,97.8431,201.0443,0,U,69215,999,287,-.23368E-1,-.2506742E-1,0
STARLINK-37766,2026-115F,2026-06-05T20:00:04.000032,15.80857858,.000125,97.2834,173.6685,88.2523,250.4738,0,U,69216,999,287,-.30821E-3,-.58894E-3,0
STARLINK-37763,2026-115G,2026-06-05T20:00:04.000032,15.80831694,.0001295,97.2834,173.6706,92.5646,249.7775,0,U,69217,999,287,.63312E-4,.12011E-3,0
STARLINK-37724,2026-115H,2026-06-05T20:00:04.000032,15.80861404,.0001383,97.2836,173.6729,95.6821,251.4066,0,U,69218,999,287,-.26535E-3,-.50781E-3,0
STARLINK-37758,2026-115J,2026-06-05T20:00:04.000032,15.80873224,.0001051,97.2830,173.6799,97.2749,268.0595,0,U,69219,999,287,-.39017E-3,-.74437E-3,0
STARLINK-37201,2026-115K,2026-06-05T20:00:04.000032,15.80861607,.0001239,97.2838,173.6768,89.9521,268.3628,0,U,69220,999,287,-.36934E-3,-.70467E-3,0
STARLINK-37728,2026-115L,2026-06-05T20:00:04.000032,15.80873307,.000128,97.2833,173.6836,83.3763,288.6895,0,U,69221,999,287,-.40272E-3,-.76808E-3,0
STARLINK-37760,2026-115M,2026-06-05T20:00:04.000032,15.80853330,.0001286,97.2835,173.6771,87.6700,268.8060,0,U,69222,999,287,-.11461E-3,-.22076E-3,0
STARLINK-37759,2026-115N,2026-06-05T20:00:04.000032,15.80851255,.0001203,97.2828,173.6852,105.9568,270.1959,0,U,69223,999,287,-.1064E-3,-.20507E-3,0
STARLINK-37725,2026-115P,2026-06-05T20:00:04.000032,15.80870093,.0001113,97.2835,173.6832,88.4832,284.4302,0,U,69224,999,287,-.41307E-3,-.78746E-3,0
STARLINK-37770,2026-115Q,2026-06-05T20:00:04.000032,15.80802333,.0001432,97.2833,173.6813,90.6646,278.8348,0,U,69225,999,287,.49531E-3,.95722E-3,0
STARLINK-37736,2026-115R,2026-06-05T20:00:04.000032,15.80864928,.0000822,97.2834,173.6836,92.3299,281.2090,0,U,69226,999,287,-.36358E-3,-.69385E-3,0
STARLINK-37737,2026-115S,2026-06-05T20:00:04.000032,15.80870153,.0001086,97.2828,173.6882,96.8904,287.9899,0,U,69227,999,289,-.39719E-3,-.75752E-3,0
STARLINK-37618,2026-115T,2026-06-05T20:00:04.000032,15.80858310,.0001429,97.2834,173.6976,98.4052,307.2418,0,U,69228,999,287,-.21409E-3,-.41037E-3,0
STARLINK-37679,2026-115U,2026-06-05T20:00:04.000032,15.80855500,.000126,97.2829,173.6939,96.7571,300.4904,0,U,69229,999,287,-.22021E-3,-.42194E-3,0
STARLINK-37746,2026-115V,2026-06-05T20:00:04.000032,15.80860933,.0001137,97.2830,173.6898,84.5584,303.9590,0,U,69230,999,287,-.30688E-3,-.58649E-3,0
STARLINK-37557,2026-115W,2026-06-05T20:00:04.000032,15.80848548,.0001295,97.2836,173.6982,94.1705,312.5487,0,U,69231,999,287,-.17923E-3,-.34389E-3,0
STARLINK-37745,2026-115X,2026-06-05T20:00:04.000032,15.80833211,.0001219,97.2829,173.7089,97.2700,332.3640,0,U,69232,999,287,.10097E-3,.19256E-3,0
STARLINK-37739,2026-115Y,2026-06-05T20:00:04.000032,15.80853422,.0001249,97.2834,173.6961,98.5431,303.4826,0,U,69233,999,287,-.123E-3,-.23678E-3,0
STARLINK-37755,2026-115Z,2026-06-05T20:00:04.000032,15.77529477,.0001532,97.2839,173.7014,75.4327,335.8354,0,U,69234,999,287,-.12021E-1,-.1752815E-1,0
TJS-24,2026-116A,2026-06-05T18:11:37.495104,1.00272356,.0000886,0.0363,244.0744,173.0974,200.2309,0,U,69235,999,11,0,-.219E-5,0
CZ-7A R/B,2026-116B,2026-05-26T21:56:07.164384,2.38711174,.72516577,19.5460,149.3523,178.3837,187.0911,0,U,69236,999,2,.75663565E-4,.49818E-3,-.368698E-6
STARLINK-37665,2026-117A,2026-06-05T20:00:04.000032,15.93561416,.0001012,53.1586,300.7318,30.6885,43.4702,0,U,69238,999,234,-.6155E-2,-.2249364E-1,.13797E-2
STARLINK-37558,2026-117B,2026-06-05T20:00:04.000032,15.93747354,.0000826,53.1584,300.7212,47.6122,31.7032,0,U,69239,999,234,-.62692E-2,-.231299E-1,.14581E-2
STARLINK-37680,2026-117C,2026-06-05T20:00:04.000032,15.94009919,.000101,53.1585,300.7099,26.5285,58.2230,0,U,69240,999,233,-.6162E-2,-.2305453E-1,.14531E-2
STARLINK-37742,2026-117D,2026-06-05T20:00:04.000032,15.94410452,.0001045,53.1585,300.6995,28.8386,60.8081,0,U,69241,999,234,-.58724E-2,-.2245109E-1,.13873E-2
STARLINK-37718,2026-117E,2026-06-05T20:00:04.000032,15.94709469,.0000866,53.1586,300.6897,47.3487,46.9556,0,U,69242,999,233,-.58392E-2,-.2268099E-1,.14192E-2
STARLINK-37735,2026-117F,2026-06-05T20:00:04.000032,15.94618396,.0000909,53.1583,300.6821,41.9264,56.0445,0,U,69243,999,234,-.61251E-2,-.2366589E-1,.15383E-2
STARLINK-37757,2026-117G,2026-06-05T20:00:04.000032,15.95116878,.0000927,53.1583,300.6670,47.0372,58.1012,0,U,69244,999,234,-.58397E-2,-.2317998E-1,.14863E-2
STARLINK-37767,2026-117H,2026-06-05T20:00:04.000032,15.95994239,.0000985,53.1579,300.6375,49.4080,70.0378,0,U,69245,999,234,-.54157E-2,-.2254886E-1,.14235E-2
STARLINK-35759,2026-117J,2026-06-05T20:00:04.000032,15.96121569,.0000971,53.1579,300.6301,56.4615,66.5060,0,U,69246,999,239,-.55158E-2,-.2311965E-1,.14957E-2
STARLINK-37238,2026-117K,2026-06-05T20:00:04.000032,15.97045714,.0000958,53.1580,300.6070,46.8744,86.9811,0,U,69247,999,234,-.50396E-2,-.2222978E-1,.14017E-2
STARLINK-37412,2026-117L,2026-06-05T20:00:04.000032,15.97837078,.0000999,53.1578,300.5859,52.6576,91.5205,0,U,69248,999,241,-.48537E-2,-.2236763E-1,.14313E-2
STARLINK-37398,2026-117M,2026-06-05T20:00:04.000032,15.97832401,.0000868,53.1576,300.5792,53.2661,93.8396,0,U,69249,999,241,-.48842E-2,-.2250112E-1,.14477E-2
STARLINK-37499,2026-117N,2026-06-05T18:00:02.998944,15.98491771,.0000782,53.1577,300.9983,57.2511,334.6306,0,U,69250,999,240,-.50219E-2,-.2399168E-1,.16522E-2
STARLINK-37489,2026-117P,2026-06-05T18:00:02.998944,15.98763799,.0000791,53.1579,300.9843,48.3690,350.0724,0,U,69251,999,240,-.49214E-2,-.2387498E-1,.1642E-2
STARLINK-37434,2026-117Q,2026-06-05T18:00:02.998944,15.99294477,.0000898,53.1575,300.9711,47.4404,357.2483,0,U,69252,999,233,-.46715E-2,-.2335647E-1,.15833E-2
STARLINK-37368,2026-117R,2026-06-05T18:00:02.998944,16.00519442,.0000896,53.1574,300.9397,50.4763,9.3061,0,U,69253,999,240,-.41813E-2,-.2242975E-1,.14855E-2
STARLINK-37517,2026-117S,2026-06-05T19:14:02.001120,16.00894224,.0000614,53.1574,300.6652,24.0338,336.0722,0,U,69254,999,117,-.15234E-2,-.844946E-2,.24751E-3
STARLINK-37378,2026-117T,2026-06-05T18:00:02.998944,16.00720960,.0000932,53.1575,300.9230,50.0098,17.8139,0,U,69255,999,232,-.41664E-2,-.2260962E-1,.15124E-2
STARLINK-37396,2026-117U,2026-06-05T18:00:02.998944,16.01148285,.0001038,53.1573,300.9067,34.2766,41.1893,0,U,69256,999,240,-.39031E-2,-.2171928E-1,.14067E-2
STARLINK-37508,2026-117V,2026-06-05T18:00:02.998944,16.01455510,.000105,53.1573,300.8944,32.4466,48.7584,0,U,69257,999,232,-.40179E-2,-.2275302E-1,.15451E-2
STARLINK-37276,2026-117W,2026-06-05T18:00:02.998944,16.05475372,.00007,53.1570,300.8604,39.1340,58.2103,0,U,69258,999,232,-.2844E-2,-.2050985E-1,.13302E-2
STARLINK-37518,2026-117X,2026-06-05T18:00:02.998944,16.05336268,.0000849,53.1569,300.8481,39.5989,63.9845,0,U,69259,999,233,-.27538E-2,-.1969829E-1,.12289E-2
STARLINK-37478,2026-117Y,2026-06-05T18:00:02.998944,16.04816865,.0001033,53.1571,300.8391,29.3572,78.5637,0,U,69260,999,233,-.28823E-2,-.1997007E-1,.12532E-2
STARLINK-37506,2026-117Z,2026-06-05T18:00:02.998944,16.04939754,.0000973,53.1567,300.8305,43.3377,68.6632,0,U,69261,999,233,-.29081E-2,-.2029673E-1,.12948E-2
STARLINK-37503,2026-117AA,2026-06-05T18:00:02.998944,16.05033435,.0000959,53.1567,300.8183,44.9481,72.5741,0,U,69262,999,233,-.29646E-2,-.2080528E-1,.13596E-2
STARLINK-37502,2026-117AB,2026-06-05T18:00:02.998944,16.04702959,.0000965,53.1567,300.8099,46.2545,75.1636,0,U,69263,999,233,-.30587E-2,-.2103464E-1,.13827E-2
STARLINK-37486,2026-117AC,2026-06-05T18:00:02.998944,16.04699774,.0000998,53.1565,300.7985,48.3312,78.7333,0,U,69264,999,233,-.30198E-2,-.2076533E-1,.13487E-2
STARLINK-37435,2026-117AD,2026-06-05T18:00:02.998944,16.05162014,.0000941,53.1564,300.7842,47.4486,86.0366,0,U,69265,999,233,-.27611E-2,-.1954273E-1,.12078E-2
STARLINK-37464,2026-117AE,2026-06-05T18:00:02.998944,16.05647680,.000105,53.1565,300.7698,36.7833,103.6108,0,U,69266,999,233,-.28157E-2,-.2052329E-1,.13349E-2
KUIPER-00282,2026-118A,2026-06-05T18:00:02.998944,15.35086038,.0011835,51.8573,108.6705,141.3626,153.4034,0,U,69267,999,159,.17772E-2,.61683E-3,0
KUIPER-00383,2026-118B,2026-06-05T18:00:02.998944,15.35785421,.0011223,51.8577,108.6502,141.1888,163.3377,0,U,69268,999,165,.18456E-2,.65546E-3,0
KUIPER-00527,2026-118C,2026-06-05T18:00:02.998944,15.35983150,.0010009,51.8604,108.6326,136.4435,176.7393,0,U,69269,999,130,.18602E-2,.66469E-3,0
KUIPER-00562,2026-118D,2026-06-05T18:00:02.998944,15.38336293,.0001849,51.8711,108.5098,89.8212,276.6962,0,U,69270,999,219,.18387E-2,.70853E-3,0
